IRIDIUM 36              
1 24967U 97056C   24120.86094261  .00000703  00000+0  23192-3 0  9999
2 24967  86.3985 346.5891 0002004  86.7467 273.3959 14.36757715392850
IRIDIUM 39              
1 25042U 97069D   24120.77187140  .00001123  00000+0  29740-3 0  9999
2 25042  86.3962  28.2648 0016155 243.4807 116.4740 14.47887975389110
IRIDIUM 38              
1 25043U 97069E   24120.81407964  .00000900  00000+0  29582-3 0  9990
2 25043  86.3988  46.9789 0003341  55.0343 305.1168 14.37210749386562
IRIDIUM 42              
1 25077U 97077A   24120.87941173  .00000824  00000+0  27976-3 0  9997
2 25077  86.3985  52.6142 0002677  74.7408 285.4084 14.35515575381884
IRIDIUM 44              
1 25078U 97077B   24120.82945761  .00000853  00000+0  26828-3 0  9997
2 25078  86.3998  35.6733 0001482  32.2099 327.9190 14.39346390384226
IRIDIUM 45              
1 25104U 97082A   24120.87389271  .00012500  00000+0  70880-3 0  9995
2 25104  86.3736 244.8981 0163991  55.6219 306.0399 15.02030409389600
IRIDIUM 24              
1 25105U 97082B   24120.90795391  .00000993  00000+0  30221-3 0  9992
2 25105  86.3898 255.3014 0011654  13.4213 346.7294 14.41115561383679
IRIDIUM 51              
1 25262U 98018A   24120.88324633  .00010879  00000+0  51783-3 0  9990
2 25262  86.3958 254.8551 0148841   1.3958 358.7662 15.09631578384120
